STARLINK-1192_new
1 15180C 20012C   21326.11994708  .00006960  00000-0  46632-3 0  3265
2 15180  53.0498 248.2229 0001788  74.4782  18.7525 15.06390355    10
STARLINK-1192_old
1 25180C 20012C   21325.12203590  .00005209  00000-0  34914-3 0  3251
2 25180  53.0504 252.7027 0001721  73.7606   4.7975 15.06382126    19
